NAVSTAR 48 (USA 151)    
1 26407U 00040A   26192.24092704  .00000105  00000+0  00000+0 0  9995
2 26407  54.8490 214.2068 0120574 302.6927  68.6966  2.00557791190436
NAVSTAR 51 (USA 166)    
1 27663U 03005A   26192.13831972  .00000106  00000+0  00000+0 0  9991
2 27663  54.8795 214.0171 0148208  53.1571  20.3268  2.00559214171799
NAVSTAR 54 (USA 177)    
1 28190U 04009A   26191.29724102 -.00000012  00000+0  00000+0 0  9991
2 28190  54.8105 274.7528 0117019 174.1119 164.7266  2.00553861163409
NAVSTAR 56 (USA 180)    
1 28474U 04045A   26191.73656659 -.00000082  00000+0  00000+0 0  9993
2 28474  55.1211 323.9480 0170102 316.9521  44.1361  2.00556823158902
NAVSTAR 57 (USA 183)    
1 28874U 05038A   26191.29576271 -.00000006  00000+0  00000+0 0  9998
2 28874  54.8594 272.2441 0128168 296.3525  70.9409  2.00564004152307
INMARSAT 4-F2           
1 28899U 05044A   26191.80922647 -.00000256  00000+0  00000+0 0  9998
2 28899   5.1237  43.6506 0002824  59.1327 260.7612  1.00271604 75752
NAVSTAR 58 (USA 190)    
1 29486U 06042A   26191.67072875  .00000045  00000+0  00000+0 0  9999
2 29486  54.7127 150.4066 0107055  55.0182 121.8872  2.00568451144861
NAVSTAR 59 (USA 192)    
1 29601U 06052A   26191.35354650  .00000111  00000+0  00000+0 0  9992
2 29601  54.9327 213.0878 0084807  90.9879 270.0479  2.00559360143870
NAVSTAR 60 (USA 196)    
1 32260U 07047A   26190.16326571 -.00000040  00000+0  00000+0 0  9993
2 32260  54.1110  79.1599 0167587  87.8540 274.1065  2.00554162137251
COSMOS 2433 [GLONASS-M] 
1 32275U 07052A   26191.84776337 -.00000062  00000+0  00000+0 0  9994
2 32275  65.5625 315.1381 0003393 203.0239 156.9646  2.13104163145568
COSMOS 2432 [GLONASS-M] 
1 32276U 07052B   26192.11350880 -.00000063  00000+0  00000+0 0  9998
2 32276  65.5781 315.2575 0007445 323.5436 184.1107  2.13103170145592
NAVSTAR 61 (USA 199)    
1 32384U 07062A   26191.49141911 -.00000007  00000+0  00000+0 0  9990
2 32384  55.0132 273.2150 0036023 167.1675 199.6275  2.00561317135985
COSMOS 2434 [GLONASS-M] 
1 32393U 07065A   26191.17907138  .00000121  00000+0  00000+0 0  9995
2 32393  64.3199 191.1401 0001266 327.2015 129.5148  2.13101374144265
COSMOS 2436 [GLONASS-M] 
1 32395U 07065C   26192.23463159  .00000111  00000+0  00000+0 0  9994
2 32395  64.3285 191.1768 0017320 353.6340 325.0785  2.13100064144233
NAVSTAR 62 (USA 201)    
1 32711U 08012A   26192.06674324  .00000036  00000+0  00000+0 0  9994
2 32711  54.4997 148.9708 0211643 248.1118 109.5954  2.00572981134233
NAVSTAR 64 (USA 206)    
1 35752U 09043A   26191.23487374 -.00000053  00000+0  00000+0 0  9992
2 35752  56.2247  26.5474 0053760  84.1723  43.1557  2.00552975123820
COSMOS 2456 [GLONASS-M] 
1 36111U 09070A   26190.63071153 -.00000025  00000+0  00000+0 0  9998
2 36111  65.0240  70.2070 0003794 337.6713 216.6373  2.13103839128908
COSMOS 2457 [GLONASS-M] 
1 36112U 09070B   26190.44876384 -.00000025  00000+0  00000+0 0  9997
2 36112  65.0094  70.0567 0003852 122.8447  59.0824  2.13101280128906
COSMOS 2460 [GLONASS-M] 
1 36402U 10007C   26191.61789161 -.00000061  00000+0  00000+0 0  9997
2 36402  65.4060 313.6745 0001799 138.8574 221.9345  2.13101688127230
NAVSTAR 65 (USA 213)    
1 36585U 10022A   26191.63630903  .00000111  00000+0  00000+0 0  9992
2 36585  54.2689 207.6174 0126638  66.1516 110.6690  2.00563498118067
BEIDOU-2 IGSO-1         
1 36828U 10036A   26188.62304566 -.00000058  00000+0  00000+0 0  9996
2 36828  54.3062 162.7756 0059224 225.1869 229.2421  1.00266308 58302
BEIDOU-2 G4             
1 37210U 10057A   26191.88374515 -.00000108  00000+0  00000+0 0  9994
2 37210   3.7018  68.8006 0005503 184.9264 153.1654  1.00270137 57524
BEIDOU-2 IGSO-2         
1 37256U 10068A   26191.65946204 -.00000197  00000+0  00000+0 0  9999
2 37256  47.5044 271.5406 0056906 213.4330 149.3314  1.00275347 57035
BEIDOU-2 IGSO-3         
1 37384U 11013A   26190.51857615 -.00000172  00000+0  00000+0 0  9996
2 37384  62.4382  39.9419 0035198 183.2390 357.7550  1.00261852 55882
GSAT-8                  
1 37605U 11022A   26192.07680012  .00000090  00000+0  00000+0 0  9998
2 37605   2.1900  81.5333 0002686 165.7352 124.4439  1.00271775 53453
BEIDOU-2 IGSO-4         
1 37763U 11038A   26191.89191873  .00000022  00000+0  00000+0 0  9996
2 37763  54.6042 165.4628 0160248 231.4112 307.2265  1.00280201 54880
GSAT0101 (GALILEO-PFM)  
1 37846U 11060A   26189.55204449 -.00000074  00000+0  00000+0 0  9995
2 37846  56.9869 341.1826 0002415  60.6868 299.3373  1.70475585 91484
GSAT0102 (GALILEO-FM2)  
1 37847U 11060B   26189.47708995 -.00000074  00000+0  00000+0 0  9992
2 37847  56.9877 341.1851 0002423  11.7755 347.8886  1.70475862 91489
COSMOS 2476 [GLONASS-M] 
1 37867U 11064A   26191.04288087 -.00000024  00000+0  00000+0 0  9994
2 37867  65.2823  72.1003 0022247 236.3907 182.4431  2.13103828114253
COSMOS 2477 [GLONASS-M] 
1 37868U 11064B   26191.43586571 -.00000023  00000+0  00000+0 0  9996
2 37868  65.2891  72.1667 0019275 237.3049 303.2879  2.13103084114253
COSMOS 2475 [GLONASS-M] 
1 37869U 11064C   26189.68046086 -.00000024  00000+0  00000+0 0  9994
2 37869  65.2949  72.2477 0024985 251.6286 337.3064  2.13101962114228
